[{"name":"Delcine Syfax","pid":"979612407","street":"738 Forest Run Alley","city":"Chula Vista","state":"CA","zip":"99199"},
{"name":"Othilie Dobeson","pid":"679663634","street":"4397 Northridge Circle","city":"Phoenix","state":"AZ","zip":"57374"},
{"name":"Cristobal Jezzard","pid":"839496875","street":"464 Bunker Hill Court","city":"Dayton","state":"OH","zip":"61709"},
{"name":"Rosemonde Tydeman","pid":"505050489","street":"3 Dahle Alley","city":"Salem","state":"OR","zip":"73998"},
{"name":"Alvy Levane","pid":"511584116","street":"39766 Bellgrove Junction","city":"Young America","state":"MN","zip":"15649"},
{"name":"Dave Gatsby","pid":"367090774","street":"0685 Nobel Lane","city":"Rochester","state":"NY","zip":"04547"},
{"name":"Agnesse Oxtiby","pid":"046209439","street":"24 Rockefeller Court","city":"Springfield","state":"MA","zip":"96491"},
{"name":"Renado Dufton","pid":"045704302","street":"72857 Mayfield Park","city":"Tacoma","state":"WA","zip":"14980"},
{"name":"Erica Henzley","pid":"336600318","street":"843 Victoria Road","city":"Erie","state":"PA","zip":"48892"},
{"name":"Christalle Feld","pid":"157338924","street":"78692 Forest Dale Trail","city":"San Antonio","state":"TX","zip":"77268"},
{"name":"Nataline Dalligan","pid":"333911208","street":"915 Dottie Pass","city":"Johnson City","state":"TN","zip":"19296"},
{"name":"Jeth Granleese","pid":"825897622","street":"844 Toban Alley","city":"Saint Paul","state":"MN","zip":"94496"},
{"name":"Simonne Eskriett","pid":"361624681","street":"6082 Hallows Court","city":"Whittier","state":"CA","zip":"09115"},
{"name":"Dosi O'Fogerty","pid":"440450785","street":"281 Independence Alley","city":"Clearwater","state":"FL","zip":"40506"},
{"name":"Leroi Medendorp","pid":"856633533","street":"252 Annamark Lane","city":"Indianapolis","state":"IN","zip":"45839"},
{"name":"Corabel Rustman","pid":"152730158","street":"0 Mayer Street","city":"Washington","state":"DC","zip":"27613"},
{"name":"Blondy Ollander","pid":"889059663","street":"8 Schlimgen Terrace","city":"Los Angeles","state":"CA","zip":"58579"},
{"name":"Nonah Zoren","pid":"280066319","street":"2 Meadow Ridge Alley","city":"Fresno","state":"CA","zip":"20084"},
{"name":"Jenine Brownsill","pid":"453952769","street":"1 Hermina Court","city":"Jackson","state":"MS","zip":"70261"},
{"name":"Valida Ferreo","pid":"029237837","street":"64 Bunting Hill","city":"Punta Gorda","state":"FL","zip":"23088"},
{"name":"Aubert Meldrum","pid":"222254120","street":"02962 Continental Junction","city":"Atlanta","state":"GA","zip":"29809"},
{"name":"Celestina Trowbridge","pid":"329308971","street":"880 Johnson Center","city":"Shawnee Mission","state":"KS","zip":"33307"},
{"name":"Loree Lippingwell","pid":"389212474","street":"9 Hanover Plaza","city":"Minneapolis","state":"MN","zip":"79226"},
{"name":"Gaultiero MacGown","pid":"301057959","street":"246 Weeping Birch Place","city":"Tampa","state":"FL","zip":"16932"},
{"name":"Camila Simmonds","pid":"273275547","street":"02 Randy Street","city":"San Rafael","state":"CA","zip":"02812"},
{"name":"Tadeas Olyfat","pid":"428131750","street":"2 Northland Place","city":"Corpus Christi","state":"TX","zip":"03165"},
{"name":"Temple Abley","pid":"755829960","street":"819 Bashford Trail","city":"Roanoke","state":"VA","zip":"62002"},
{"name":"Asia MacCafferty","pid":"109766511","street":"47981 Rieder Plaza","city":"Minneapolis","state":"MN","zip":"44253"},
{"name":"Beckie Noads","pid":"072728917","street":"560 3rd Circle","city":"Lancaster","state":"CA","zip":"04789"},
{"name":"Estelle Alenichev","pid":"680374252","street":"73 Trailsway Trail","city":"Tampa","state":"FL","zip":"30181"},
{"name":"Sigismundo Flips","pid":"934927869","street":"0 Grover Hill","city":"Greensboro","state":"NC","zip":"91667"},
{"name":"Tonya McGilbon","pid":"077646871","street":"87 Caliangt Hill","city":"Washington","state":"DC","zip":"33481"},
{"name":"Alli Dudderidge","pid":"673982137","street":"222 Londonderry Avenue","city":"Brooklyn","state":"NY","zip":"23192"},
{"name":"Mallory Pellitt","pid":"506248644","street":"3399 Dapin Place","city":"Memphis","state":"TN","zip":"73573"},
{"name":"Delmer Aseef","pid":"645939776","street":"9284 Upham Circle","city":"Mobile","state":"AL","zip":"31535"},
{"name":"Norman Brechin","pid":"020323682","street":"669 Hovde Center","city":"West Palm Beach","state":"FL","zip":"95304"},
{"name":"Margo Rustan","pid":"586423764","street":"0153 Almo Road","city":"Chicago","state":"IL","zip":"53796"},
{"name":"Trueman Grishkov","pid":"326719418","street":"9 Clyde Gallagher Way","city":"Phoenix","state":"AZ","zip":"45760"},
{"name":"Symon Bischof","pid":"570421296","street":"913 Jackson Avenue","city":"Evanston","state":"IL","zip":"47664"},
{"name":"Anallese Luckey","pid":"328878446","street":"5 Hermina Road","city":"Trenton","state":"NJ","zip":"22307"},
{"name":"Norman Ohrt","pid":"786561917","street":"369 Montana Point","city":"Richmond","state":"VA","zip":"81564"},
{"name":"Constantina Stryde","pid":"560026856","street":"89398 Mesta Road","city":"Chicago","state":"IL","zip":"12502"},
{"name":"Beauregard Burnage","pid":"245495876","street":"72 Mallard Drive","city":"Little Rock","state":"AR","zip":"71827"},
{"name":"Eachelle Lidgate","pid":"815744805","street":"1166 Thompson Pass","city":"Abilene","state":"TX","zip":"89507"},
{"name":"Jeni Gerram","pid":"106637217","street":"77 Nancy Alley","city":"Atlanta","state":"GA","zip":"77612"},
{"name":"Julianna Amber","pid":"260995798","street":"740 Northport Park","city":"Syracuse","state":"NY","zip":"38443"},
{"name":"Care Balfour","pid":"119357878","street":"22497 Moland Drive","city":"New Orleans","state":"LA","zip":"03075"},
{"name":"Yves Addenbrooke","pid":"983703038","street":"2 Corry Junction","city":"Northridge","state":"CA","zip":"99008"},
{"name":"Cyndia Cudd","pid":"261191228","street":"5 Golf Place","city":"Richmond","state":"VA","zip":"33778"},
{"name":"Caryl Glanville","pid":"247071336","street":"57036 Cambridge Court","city":"Nashville","state":"TN","zip":"28026"},
{"name":"Xaviera Hobbema","pid":"241457088","street":"8 Sutherland Crossing","city":"Charlotte","state":"NC","zip":"60982"},
{"name":"Matilda Aldus","pid":"840096908","street":"6 Holmberg Pass","city":"San Diego","state":"CA","zip":"35438"},
{"name":"Johannes Dyett","pid":"594359253","street":"03637 Heffernan Place","city":"Arlington","state":"VA","zip":"93452"},
{"name":"Mirabel Mariolle","pid":"562661960","street":"28 Burning Wood Alley","city":"Peoria","state":"IL","zip":"83830"},
{"name":"Debby Lettice","pid":"562128215","street":"1 Pawling Point","city":"Philadelphia","state":"PA","zip":"94363"},
{"name":"Onida Goard","pid":"365596832","street":"54 Brickson Park Junction","city":"Vienna","state":"VA","zip":"19578"},
{"name":"Sterling Sherwell","pid":"326330561","street":"349 Bowman Street","city":"Lake Charles","state":"LA","zip":"22156"},
{"name":"King Yelyashev","pid":"352784203","street":"688 Anderson Avenue","city":"El Paso","state":"TX","zip":"15820"},
{"name":"Thomasa Davidove","pid":"913243395","street":"3298 Barnett Road","city":"Washington","state":"DC","zip":"87547"},
{"name":"Gunar O'Nowlan","pid":"691398941","street":"729 Red Cloud Road","city":"Shawnee Mission","state":"KS","zip":"86000"},
{"name":"Brig Carwardine","pid":"456906042","street":"96549 Luster Trail","city":"Roanoke","state":"VA","zip":"32975"},
{"name":"Chick Greenhead","pid":"072722023","street":"576 Knutson Circle","city":"Metairie","state":"LA","zip":"73858"},
{"name":"Naoma Sebyer","pid":"778897434","street":"6424 Dawn Terrace","city":"Saint Joseph","state":"MO","zip":"18899"},
{"name":"Abigael Ridesdale","pid":"725784913","street":"86290 Tennyson Court","city":"Tucson","state":"AZ","zip":"13732"},
{"name":"Nydia Loiterton","pid":"611227833","street":"15 Main Road","city":"Pompano Beach","state":"FL","zip":"45319"},
{"name":"Ardis Whitlow","pid":"976907708","street":"0447 Canary Place","city":"Milwaukee","state":"WI","zip":"11410"},
{"name":"Chrissy Whysall","pid":"639143964","street":"0698 Sage Terrace","city":"Dallas","state":"TX","zip":"17600"},
{"name":"Darnell Renney","pid":"527427887","street":"492 Maryland Pass","city":"Fort Wayne","state":"IN","zip":"19905"},
{"name":"Michelina Heavyside","pid":"494302539","street":"166 Bobwhite Trail","city":"Houston","state":"TX","zip":"93563"},
{"name":"Mae Tirkin","pid":"210783406","street":"8 Graedel Road","city":"Bonita Springs","state":"FL","zip":"87480"},
{"name":"Winnie Jacquemet","pid":"493714107","street":"308 South Park","city":"Albuquerque","state":"NM","zip":"75394"},
{"name":"Darla Magson","pid":"238842999","street":"46 Lakewood Terrace","city":"Greensboro","state":"NC","zip":"87331"},
{"name":"Rudd Sushams","pid":"986565422","street":"34 Sutteridge Park","city":"San Diego","state":"CA","zip":"63326"},
{"name":"Farley Minet","pid":"898552027","street":"5761 Ruskin Terrace","city":"Tallahassee","state":"FL","zip":"11709"},
{"name":"Avery Baines","pid":"163229274","street":"347 Arapahoe Road","city":"Houston","state":"TX","zip":"00623"},
{"name":"Hyacinthe Ollivierre","pid":"360120594","street":"60634 Corry Pass","city":"Saint Louis","state":"MO","zip":"49911"},
{"name":"Sumner Reinger","pid":"100932365","street":"5128 Glendale Center","city":"Houston","state":"TX","zip":"17895"},
{"name":"Way Knowler","pid":"384040400","street":"55176 Haas Avenue","city":"Atlanta","state":"GA","zip":"22936"},
{"name":"Lianna Nattriss","pid":"854386637","street":"17 Kipling Lane","city":"Denver","state":"CO","zip":"73493"},
{"name":"Gib Atherley","pid":"990332840","street":"1256 Sundown Parkway","city":"Memphis","state":"TN","zip":"16238"},
{"name":"Kevan Jay","pid":"527629797","street":"8 Dawn Lane","city":"Springfield","state":"IL","zip":"33018"},
{"name":"Mamie Booton","pid":"734192750","street":"3874 Fairfield Place","city":"Chicago","state":"IL","zip":"53497"},
{"name":"Kalinda Curthoys","pid":"927113047","street":"49839 Charing Cross Park","city":"Anniston","state":"AL","zip":"44190"},
{"name":"Solomon Allcock","pid":"697345343","street":"4 Goodland Park","city":"Norfolk","state":"VA","zip":"62980"},
{"name":"Lorant Hiner","pid":"862619729","street":"2125 Cordelia Hill","city":"Santa Barbara","state":"CA","zip":"79416"},
{"name":"Atlanta Crocombe","pid":"386554719","street":"736 Cascade Place","city":"Lexington","state":"KY","zip":"81181"},
{"name":"Karim Postle","pid":"923662646","street":"3257 Mcguire Park","city":"Boston","state":"MA","zip":"32578"},
{"name":"Vivianne McGeffen","pid":"497144563","street":"1831 Mallory Crossing","city":"Jackson","state":"TN","zip":"31545"},
{"name":"Cara Want","pid":"307063525","street":"47 Annamark Hill","city":"Washington","state":"DC","zip":"47222"},
{"name":"Fraze Jelfs","pid":"045155098","street":"3 Parkside Junction","city":"Tucson","state":"AZ","zip":"94931"},
{"name":"Corabel Clulow","pid":"377614490","street":"29 Jackson Place","city":"Duluth","state":"MN","zip":"50578"},
{"name":"Eli Cahn","pid":"873504163","street":"99603 Bayside Hill","city":"Gainesville","state":"FL","zip":"23204"},
{"name":"Codee Cornelissen","pid":"861848648","street":"55 Toban Court","city":"Indianapolis","state":"IN","zip":"47690"},
{"name":"Quincey Smitton","pid":"434639505","street":"3 Daystar Court","city":"Birmingham","state":"AL","zip":"57306"},
{"name":"Erinna Renihan","pid":"375152339","street":"24 Calypso Plaza","city":"Kansas City","state":"KS","zip":"17485"},
{"name":"Pollyanna Leile","pid":"190884161","street":"77 International Junction","city":"Houston","state":"TX","zip":"76743"},
{"name":"Hans Chiene","pid":"915065679","street":"92 Hooker Crossing","city":"Edmond","state":"OK","zip":"82700"},
{"name":"Stormie Mollin","pid":"931964741","street":"23399 Golden Leaf Drive","city":"Richmond","state":"CA","zip":"26101"},
{"name":"Bea Batham","pid":"964107641","street":"308 Eggendart Avenue","city":"Lake Worth","state":"FL","zip":"80992"},
{"name":"Phyllis Deddum","pid":"947812794","street":"5 Lindbergh Court","city":"Mobile","state":"AL","zip":"61895"}]